SatCatId,ObjectName,LaunchYear,OrbitalPeriod,LaunchMass,StatusCode,Inclination,Status,UcsData,OrbitClassEstimated,LaunchSiteCountry,Owner,UseType,Purpose,LaunchVehicleClass,TLE1,TLE2,MeanMotion,Eccentricity,OrbitClass
58856,STARLINK-31244,2024,94.37,-1.0,+,43.0,Active,0,LEO,USA,USA,Unknown,Unknown,Unknown,1 58856U 24019D   24130.98492853  .00100785  00000+0  38064-2 0  9999,2 58856  43.0015  59.3091 0001363 277.3548  82.7148 15.25943271 16885,15.25943271,0.0001363,LEO
58857,STARLINK-31216,2024,94.37,-1.0,+,43.0,Active,0,LEO,USA,USA,Unknown,Unknown,Unknown,1 58857U 24019E   24131.13379427  .00072500  00000+0  27497-2 0  9990,2 58857  43.0007  57.8316 0001970 268.7147  91.3479 15.25964042 16896,15.25964042,0.000197,LEO
58858,STARLINK-31226,2024,94.37,-1.0,+,43.0,Active,0,LEO,USA,USA,Unknown,Unknown,Unknown,1 58858U 24019F   24131.49954278  .00000632  00000+0  34017-4 0  9998,2 58858  43.0021  56.2833 0001766 250.8057 109.2603 15.25905581 16964,15.25905581,0.0001766,LEO
58859,STARLINK-31197,2024,94.37,-1.0,+,43.0,Active,0,LEO,USA,USA,Unknown,Unknown,Unknown,1 58859U 24019G   24131.51764337 -.00001979  00000+0 -65848-4 0  9990,2 58859  43.0009  56.4412 0001434 267.6090  92.4597 15.25897825 16967,15.25897825,0.0001434,LEO
58860,STARLINK-31213,2024,94.37,-1.0,+,43.0,Active,0,LEO,USA,USA,Unknown,Unknown,Unknown,1 58860U 24019H   24131.20391670 -.00003414  00000+0 -12070-3 0  9998,2 58860  42.9990  58.3876 0001649 253.5481 106.5189 15.25917236 16915,15.25917236,0.0001649,LEO
58861,STARLINK-31199,2024,94.37,-1.0,+,43.0,Active,0,LEO,USA,USA,Unknown,Unknown,Unknown,1 58861U 24019J   24131.50634289 -.00004525  00000+0 -16323-3 0  9997,2 58861  43.0049  56.3351 0001623 245.0586 115.0097 15.25912357 16960,15.25912357,0.0001623,LEO
58862,STARLINK-31200,2024,94.37,-1.0,+,43.0,Active,0,LEO,USA,USA,Unknown,Unknown,Unknown,1 58862U 24019K   24131.49049971  .00055111  00000+0  21014-2 0  9991,2 58862  43.0026  56.2162 0001638 253.6213 106.4458 15.25902060 16968,15.2590206,0.0001638,LEO
58863,STARLINK-31149,2024,94.37,-1.0,+,43.0,Active,0,LEO,USA,USA,Unknown,Unknown,Unknown,1 58863U 24019L   24131.47932939 -.00007164  00000+0 -26446-3 0  9997,2 58863  43.0004  57.0059 0001716 261.6393  98.4264 15.25889216 16955,15.25889216,0.0001716,LEO
58864,STARLINK-31242,2024,94.37,-1.0,+,43.0,Active,0,LEO,USA,USA,Unknown,Unknown,Unknown,1 58864U 24019M   24131.51539287  .00011181  00000+0  43661-3 0  9992,2 58864  43.0026  56.4183 0001476 265.6278  94.4405 15.25911194 16965,15.25911194,0.0001476,LEO
58865,STARLINK-31223,2024,94.37,-1.0,+,43.0,Active,0,LEO,USA,USA,Unknown,Unknown,Unknown,1 58865U 24019N   24131.48597463 -.00003234  00000+0 -11388-3 0  9992,2 58865  43.0045  56.1912 0001863 264.1731  95.8908 15.25897404 16940,15.25897404,0.0001863,LEO
58866,STARLINK-31219,2024,94.37,-1.0,+,43.0,Active,0,LEO,USA,USA,Unknown,Unknown,Unknown,1 58866U 24019P   24131.27162252  .00022785  00000+0  87670-3 0  9991,2 58866  43.0016  58.0379 0002018 271.0770  88.9850 15.25965609 16908,15.25965609,0.0002018,LEO
58867,STARLINK-31198,2024,94.37,-1.0,+,43.0,Active,0,LEO,USA,USA,Unknown,Unknown,Unknown,1 58867U 24019Q   24131.50179331  .00033641  00000+0  12886-2 0  9993,2 58867  43.0097  56.2806 0000355 276.1756  83.9054 15.25947048 16947,15.25947048,3.55e-05,LEO
58868,STARLINK-31196,2024,94.37,-1.0,+,43.0,Active,0,LEO,USA,USA,Unknown,Unknown,Unknown,1 58868U 24019R   24131.50407290  .00008795  00000+0  34578-3 0  9997,2 58868  43.0036  56.3161 0001835 252.4426 107.6225 15.25899988 16944,15.25899988,0.0001835,LEO
58869,STARLINK-31203,2024,94.37,-1.0,+,43.0,Active,0,LEO,USA,USA,Unknown,Unknown,Unknown,1 58869U 24019S   24130.99731631  .00004990  00000+0  20035-3 0  9995,2 58869  43.0039  54.2262 0001233 249.8195 110.2523 15.25928458 16948,15.25928458,0.0001233,LEO
58870,STARLINK-31201,2024,94.37,-1.0,+,43.0,Active,0,LEO,USA,USA,Unknown,Unknown,Unknown,1 58870U 24019T   24131.21296831  .00003525  00000+0  14456-3 0  9994,2 58870  43.0015  58.4499 0002040 242.7526 117.3118 15.25902271 16896,15.25902271,0.000204,LEO
58871,STARLINK-31214,2024,94.37,-1.0,+,43.0,Active,0,LEO,USA,USA,Unknown,Unknown,Unknown,1 58871U 24019U   24131.13619608  .00027457  00000+0  10544-2 0  9990,2 58871  43.0022  58.7411 0002350 266.2044  93.8538 15.25945933 16887,15.25945933,0.000235,LEO
58872,STARLINK-31215,2024,94.37,-1.0,+,43.0,Active,0,LEO,USA,USA,Unknown,Unknown,Unknown,1 58872U 24019V   24131.52216114  .00016137  00000+0  62464-3 0  9991,2 58872  42.9981  56.4776 0000889 315.6304  44.4475 15.25950266 16946,15.25950266,8.89e-05,LEO
58873,STARLINK-31177,2024,94.37,-1.0,+,43.0,Active,0,LEO,USA,USA,Unknown,Unknown,Unknown,1 58873U 24019W   24131.48371073  .00004609  00000+0  18588-3 0  9992,2 58873  42.9991  56.1670 0001747  69.0938 291.0100 15.25920271 16965,15.25920271,0.0001747,LEO
58874,STARLINK-30945,2024,94.37,-1.0,+,43.0,Active,0,LEO,USA,USA,Unknown,Unknown,Unknown,1 58874U 24019X   24131.49728862  .00031959  00000+0  12276-2 0  9991,2 58874  43.0032  56.2515 0001391 288.2618  71.8081 15.25874036 16967,15.25874036,0.0001391,LEO
58875,STARLINK-31212,2024,94.37,-1.0,+,43.0,Active,0,LEO,USA,USA,Unknown,Unknown,Unknown,1 58875U 24019Y   24131.20843041  .00005904  00000+0  23526-3 0  9990,2 58875  43.0004  58.4210 0002003 256.1629 103.8999 15.25922881 16898,15.25922881,0.0002003,LEO
58876,STARLINK-31306,2024,94.24,-1.0,+,53.16,Active,0,LEO,USA,USA,Unknown,Unknown,Unknown,1 58876U 24020A   24131.47183781  .00012665  00000+0  46917-3 0  9991,2 58876  53.1576 186.9663 0002446  53.3782 306.7443 15.28017440 16934,15.2801744,0.0002446,LEO
58877,STARLINK-31326,2024,94.24,-1.0,+,53.16,Active,0,LEO,USA,USA,Unknown,Unknown,Unknown,1 58877U 24020B   24131.55608529  .00004027  00000+0  15794-3 0  9995,2 58877  53.1586 185.3527 0002087  87.1890 272.9349 15.28031439 16948,15.28031439,0.0002087,LEO
58878,STARLINK-31300,2024,94.24,-1.0,+,53.16,Active,0,LEO,USA,USA,Unknown,Unknown,Unknown,1 58878U 24020C   24131.46715643  .00003394  00000+0  13510-3 0  9992,2 58878  53.1574 186.9306 0001498  82.4789 277.6381 15.28027231 15759,15.28027231,0.0001498,LEO
58879,STARLINK-31296,2024,94.24,-1.0,+,53.16,Active,0,LEO,USA,USA,Unknown,Unknown,Unknown,1 58879U 24020D   24131.52822297  .00005922  00000+0  22623-3 0  9998,2 58879  53.1577 186.6009 0001824 109.7209 250.3988 15.28027622 15769,15.28027622,0.0001824,LEO
58880,STARLINK-31328,2024,94.24,-1.0,+,53.16,Active,0,LEO,USA,USA,Unknown,Unknown,Unknown,1 58880U 24020E   24131.55005463  .00000252  00000+0  21772-4 0  9997,2 58880  53.1580 180.2462 0001452  83.3412 276.7753 15.28031515 17027,15.28031515,0.0001452,LEO
58881,STARLINK-31260,2024,94.24,-1.0,+,53.16,Active,0,LEO,USA,USA,Unknown,Unknown,Unknown,1 58881U 24020F   24131.52787976  .00002859  00000+0  11580-3 0  9991,2 58881  53.1571 186.5957 0001478  73.9955 286.1208 15.28031688 15761,15.28031688,0.0001478,LEO
58882,STARLINK-31323,2024,94.24,-1.0,+,53.16,Active,0,LEO,USA,USA,Unknown,Unknown,Unknown,1 58882U 24020G   24131.45812743  .00001012  00000+0  49173-4 0  9995,2 58882  53.1561 186.8764 0001314  87.7732 272.3418 15.28029247 15752,15.28029247,0.0001314,LEO
58883,STARLINK-31209,2024,94.24,-1.0,+,53.16,Active,0,LEO,USA,USA,Unknown,Unknown,Unknown,1 58883U 24020H   24131.45777402  .00004045  00000+0  15851-3 0  9992,2 58883  53.1577 186.8773 0001368  76.7317 283.3835 15.28044387 15753,15.28044387,0.0001368,LEO
58884,STARLINK-31315,2024,93.53,-1.0,+,53.16,Active,0,LEO,USA,USA,Unknown,Unknown,Unknown,1 58884U 24020J   24131.50451375 -.00002104  00000+0 -42624-4 0  9992,2 58884  53.1604 171.4024 0001254  90.7982 269.3167 15.39628232 15977,15.39628232,0.0001254,LEO
58885,STARLINK-31318,2024,94.24,-1.0,+,53.16,Active,0,LEO,USA,USA,Unknown,Unknown,Unknown,1 58885U 24020K   24131.54215441  .00016302  00000+0  59946-3 0  9996,2 58885  53.1577 185.9698 0001721  83.6701 276.4495 15.28044134 15775,15.28044134,0.0001721,LEO
58886,STARLINK-31320,2024,94.24,-1.0,+,53.16,Active,0,LEO,USA,USA,Unknown,Unknown,Unknown,1 58886U 24020L   24131.45344974  .00003239  00000+0  12954-3 0  9994,2 58886  53.1564 186.8489 0001672  84.3490 275.7700 15.28027697 15752,15.28027697,0.0001672,LEO
58887,STARLINK-31321,2024,94.24,-1.0,+,53.16,Active,0,LEO,USA,USA,Unknown,Unknown,Unknown,1 58887U 24020M   24131.44877287  .00003918  00000+0  15404-3 0  9999,2 58887  53.1554 186.8200 0001202  82.5446 277.5690 15.28019191 16910,15.28019191,0.0001202,LEO
58888,STARLINK-30970,2024,94.0,-1.0,+,53.16,Active,0,LEO,USA,USA,Unknown,Unknown,Unknown,1 58888U 24020N   24131.46319742  .00181984  00000+0  56935-2 0  9992,2 58888  53.1555 186.2122 0006393  32.1376 328.0014 15.31918358 15769,15.31918358,0.0006393,LEO
58889,STARLINK-31007,2024,94.24,-1.0,+,53.15,Active,0,LEO,USA,USA,Unknown,Unknown,Unknown,1 58889U 24020P   24131.57925630  .00033820  00000+0  12274-2 0  9997,2 58889  53.1545 186.2096 0001257 102.3548 257.7592 15.28038661 15770,15.28038661,0.0001257,LEO
58890,STARLINK-31230,2024,94.12,-1.0,+,53.16,Active,0,LEO,USA,USA,Unknown,Unknown,Unknown,1 58890U 24020Q   24131.43020807  .00016218  00000+0  56159-3 0  9999,2 58890  53.1572 186.7044 0002797  38.2282 321.8917 15.30018400 15756,15.300184,0.0002797,LEO
58891,STARLINK-31245,2024,93.17,-1.0,+,53.16,Active,0,LEO,USA,USA,Unknown,Unknown,Unknown,1 58891U 24020R   24131.58750894  .00076830  00000+0  15643-2 0  9990,2 58891  53.1584 157.3525 0003092 139.2526 220.8713 15.45601875 17338,15.45601875,0.0003092,LEO
58892,STARLINK-31254,2024,94.24,-1.0,+,53.16,Active,0,LEO,USA,USA,Unknown,Unknown,Unknown,1 58892U 24020S   24131.58334491 -.00016531  00000+0 -58571-3 0  9994,2 58892  53.1604 185.9430 0001711  63.1281  88.2505 15.28006045  5817,15.28006045,0.0001711,LEO
58893,STARLINK-31255,2024,94.24,-1.0,+,53.16,Active,0,LEO,USA,USA,Unknown,Unknown,Unknown,1 58893U 24020T   24131.57022631  .00005118  00000+0  19721-3 0  9995,2 58893  53.1563 186.1526 0001396  96.2323 263.8836 15.28036358 15778,15.28036358,0.0001396,LEO
